SL-3 R/B                
1 19046U 88032B   23024.12003271  .00005166  00000+0  36566-3 0  9994
2 19046  97.4063  18.5951 0035157 203.6076 156.3539 15.04757773880076
SL-16 R/B               
1 19120U 88039B   23023.84425851  .00000248  00000+0  14054-3 0  9998
2 19120  71.0162 320.2145 0024234 287.8746  71.9736 14.19284036796762
COSMOS 1953             
1 19210U 88050A   23024.19082856  .00005189  00000+0  32875-3 0  9994
2 19210  82.5196 205.8814 0018812 121.4805 238.8265 15.08606833885954
SL-8 R/B                
1 19257U 88053B   23024.11725150  .00000475  00000+0  16644-3 0  9990
2 19257  74.0476  52.7185 0019814 160.0574 255.6929 14.37713349812896
COSMOS 1975             
1 19573U 88093A   23024.45873974  .00008510  00000+0  55619-3 0  9993
2 19573  82.5217 161.9295 0012583 158.0816 202.0953 15.07617854867740
SL-14 R/B               
1 19574U 88093B   23023.79339840  .00000836  00000+0  98100-4 0  9995
2 19574  82.5307  31.2463 0020753 203.9546 328.9410 14.83669798852843
SL-16 R/B               
1 19650U 88102B   23023.75114883  .00000141  00000+0  96065-4 0  9992
2 19650  71.0003  31.5561 0016355 302.7214  57.2332 14.15862753765668
INTERCOSMOS 24          
1 20261U 89080A   23024.24841125  .00000771  00000+0  22181-3 0  9995
2 20261  82.6045 124.7686 1201056  53.3843 317.1778 12.56701813522976
SL-14 R/B               
1 20262U 89080C   23024.48895299  .00000563  00000+0  17223-3 0  9993
2 20262  82.5947 184.6763 1235153 268.4466  77.5151 12.49171355517287
DELTA 2 R/B(1)          
1 20303U 89085B   23023.54569338  .00037349  00000+0  72022-3 0  9992
2 20303  35.6359 120.7115 0064639  44.7938 315.7989 15.44523068813845
DELTA 1 R/B             
1 20323U 89089B   23023.77417034  .00000617  00000+0  16740-3 0  9991
2 20323  97.0641  34.8334 0072751 119.9258 240.9190 14.48664678750967
ARIANE 40 R/B           
1 20443U 90005H   23023.46000183  .00000581  00000+0  20471-3 0  9999
2 20443  98.4585  93.2899 0010836  33.7182 326.4693 14.38359608728924
DELTA 2 R/B(1)          
1 20453U 90008B   23023.12795411  .00019180  00000+0  94307-3 0  9995
2 20453  35.6242  36.8734 0253239 339.9757  19.1168 14.93377266752712
COSMOS 2058             
1 20465U 90010A   23024.13343494  .00003144  00000+0  25284-3 0  9994
2 20465  82.4866  77.8473 0013766 229.6573 130.3449 14.99622430791805
SL-14 R/B               
1 20466U 90010B   23024.12805203  .00000706  00000+0  86245-4 0  9991
2 20466  82.5016 256.9494 0021925  93.6059 266.7663 14.81704235780547
SL-14 R/B               
1 20511U 90018B   23024.04238003  .00000803  00000+0  10215-3 0  9990
2 20511  82.5218 207.6649 0016082 237.6747 244.4378 14.80346453774822
HST                     
1 20580U 90037B   23023.61933341  .00005562  00000+0  30747-3 0  9995
2 20580  28.4695 148.8896 0001995 254.1224 114.2647 15.11730983599814
SL-16 R/B               
1 20625U 90046B   23024.53473710 -.00000082  00000+0 -17666-4 0  9996
2 20625  70.9981 171.8511 0016422 241.5224 118.4245 14.14719742687376
COSMOS 2084             
1 20663U 90055A   23023.28892911  .00004552  00000+0  37612-3 0  9993
2 20663  62.7911 234.1015 0131683  71.9968 289.5426 14.93866918765136
SL-6 R/B(2)             
1 20666U 90055D   23024.43985063  .00004184  00000+0  34498-3 0  9995
2 20666  62.7846 144.1648 0131551  93.7188 267.8961 14.94113567766734
SL-8 R/B                
1 20775U 90078B   23023.83072705  .00018856  00000+0  84878-3 0  9992
2 20775  82.9246 159.0770 0533535 116.5840 249.1050 14.44569312642262
SL-8 R/B                
1 21088U 91006B   23023.83393073  .00000129  00000+0  11495-3 0  9995
2 21088  82.9437 298.5816 0022576 353.7164  66.2088 13.77238287607296
OKEAN-3                 
1 21397U 91039A   23023.84780221  .00004590  00000+0  42231-3 0  9998
2 21397  82.5231 352.6880 0015865 222.3091 137.6907 14.94468670715163
COSMOS 2151             
1 21422U 91042A   23023.90714441  .00002594  00000+0  24563-3 0  9999
2 21422  82.4997  97.6328 0012523 298.6903  61.3058 14.93217162713726
SL-14 R/B               
1 21423U 91042B   23023.99067433  .00000726  00000+0  92591-4 0  9993
2 21423  82.4928 208.3823 0018245  29.0075 331.2148 14.80088861705284
ERS-1                   
1 21574U 91050A   23023.65035763  .00000569  00000+0  20191-3 0  9994
2 21574  98.7264   0.4973 0032664 346.9734  13.0605 14.38009759651640
ARIANE 40 R/B           
1 21610U 91050F   23024.19058867  .00000703  00000+0  23111-3 0  9990
2 21610  98.3565  94.1302 0002146 285.6501  74.4451 14.41208879654898
INTERCOSMOS 25          
1 21819U 91086A   23024.12426009  .00003187  00000+0  63433-3 0  9990
2 21819  82.6085 276.4657 1511946  44.8158 326.5472 12.06369569358851
SL-8 R/B                
1 21876U 92008B   23023.78807032  .00000170  00000+0  15871-3 0  9990
2 21876  82.9256  36.0423 0036229  81.1459  91.2233 13.75728439552760
SL-8 R/B                
1 21938U 92020B   23022.66646733  .00000142  00000+0  13181-3 0  9999
2 21938  82.9303 281.8267 0027985 244.4009 177.7709 13.75320090544447
COSMOS 2219             
1 22219U 92076A   23023.01397968  .00000200  00000+0  13043-3 0  9998
2 22219  71.0578 244.0007 0017478 150.5233 209.6879 14.13718351557337
SL-16 R/B               
1 22220U 92076B   23024.09021859  .00000349  00000+0  19885-3 0  9996
2 22220  71.0001  70.3713 0011744  24.1616   0.5443 14.16529295560626
COSMOS 2221             
1 22236U 92080A   23023.72640749  .00002912  00000+0  30594-3 0  9990
2 22236  82.5077 285.2932 0017740  49.4174 310.8584 14.89048533631650
SL-16 R/B               
1 22285U 92093B   23023.00703745  .00000093  00000+0  72490-4 0  9995
2 22285  71.0199 240.3538 0006541 255.2904 104.7494 14.15116150551944
COSMOS 2228             
1 22286U 92094A   23024.06621688  .00002712  00000+0  28242-3 0  9994
2 22286  82.5175 242.3232 0020930 157.8365 202.3763 14.89326867626929
SL-16 R/B               
1 22566U 93016B   23024.15053741  .00000304  00000+0  18138-3 0  9997
2 22566  71.0073  90.0917 0012558 260.6645  99.3057 14.15028877540822
COSMOS 2242             
1 22626U 93024A   23023.74179502  .00002673  00000+0  27981-3 0  9998
2 22626  82.5204 271.1765 0018807 158.7266 201.4738 14.89141452610505
SL-16 R/B               
1 22803U 93059B   23023.04636862  .00000280  00000+0  16300-3 0  9998
2 22803  70.9896 257.9919 0016262 156.9527 203.2329 14.16897296518064
ARIANE 40 R/B           
1 22830U 93061H   23024.16841309  .00000451  00000+0  18553-3 0  9991
2 22830  98.6366  91.1902 0011640  54.4805 305.7462 14.31658039531090
COSMOS 2278             
1 23087U 94023A   23023.77959606  .00000239  00000+0  15076-3 0  9992
2 23087  71.0548  41.1867 0010479 319.5170  40.5172 14.13917257483768
SL-16 R/B               
1 23088U 94023B   23024.13446009 -.00000177  00000+0 -67029-4 0  9991
2 23088  71.0012 305.6374 0005628 247.9441 112.1084 14.14736974485037
SL-16 R/B               
1 23343U 94074B   23024.15662000  .00000874  00000+0  13046-3 0  9995
2 23343  97.8631  76.9651 0006114 333.9497  88.8303 14.77224280518950
SL-16 R/B               
1 23405U 94077B   23023.00288876 -.00000169  00000+0 -61987-4 0  9992
2 23405  70.9813 233.8287 0000436 168.4704 191.6429 14.15282756454950
ERS-2                   
1 23560U 95021A   23023.81857817  .00031926  00000+0  10590-2 0  9995
2 23560  98.5093 325.1778 0004738 133.5931 226.5700 15.31190174487005
ARIANE 40+ R/B          
1 23561U 95021B   23024.15574156  .00000572  00000+0  20283-3 0  9990
2 23561  98.5951  87.0123 0006108 315.2589  99.3307 14.38283162455435
SL-16 R/B               
1 23705U 95058B   23024.15347196 -.00000160  00000+0 -57760-4 0  9998
2 23705  71.0222  54.1935 0010489  49.8949 310.3091 14.15203500406777
SL-16 R/B               
1 24298U 96051B   23024.48508233  .00000141  00000+0  10266-3 0  9993
2 24298  70.8265  64.4286 0013700  10.8206 349.3206 14.12477153360903
ORBVIEW 2 (SEASTAR)     
1 24883U 97037A   23023.81674498  .00000662  00000+0  25381-3 0  9993
2 24883  98.7035 153.2484 0002551 160.6238 199.5043 14.33884705345146
SL-16 R/B               
1 25400U 98043G   23023.81994996  .00000177  00000+0  93370-4 0  9990
2 25400  98.6947 322.7372 0010957  88.0695 272.1740 14.25558971276645
SL-16 R/B               
1 25407U 98045B   23024.15056955 -.00000060  00000+0 -64565-5 0  9999
2 25407  71.0107  59.4921 0009116 311.8157  48.2187 14.15885386265911
ISS (ZARYA)             
1 25544U 98067A   23024.73316906  .00024370  00000+0  43221-3 0  9996
2 25544  51.6454 319.0974 0004794 275.1350 166.4282 15.50088591379546
CZ-4B R/B               
1 25732U 99025C   23023.41322715  .00000139  00000+0  89414-4 0  9991
2 25732  98.8263  68.7605 0037620  20.2166 350.5635 14.17774150226569
OKEAN-O                 
1 25860U 99039A   23024.09602751  .00001106  00000+0  16368-3 0  9996
2 25860  98.1113  70.5340 0001774  82.1574 277.9837 14.77185261265919
SL-16 R/B               
1 25861U 99039B   23024.10843455  .00001064  00000+0  15097-3 0  9998
2 25861  98.1576  59.5204 0015188 348.0974  11.9875 14.79053704268246
DELTA 2 R/B             
1 25876U 99041E   23024.42762824  .00003793  00000+0  67662-3 0  9998
2 25876  51.7656 154.1047 0527216 239.1176 115.6894 14.05586824202319
HELIOS 1B               
1 25977U 99064A   23024.11874440  .00001299  00000+0  16665-3 0  9995
2 25977  98.3063 232.1259 0001949 121.2582 238.8821 14.83064378247288
TERRA                   
1 25994U 99068A   23024.46137911  .00000964  00000+0  21499-3 0  9990
2 25994  98.1132  96.3052 0002372 131.2073 284.4286 14.58998252228820
SL-16 R/B               
1 26070U 00006B   23023.30560902 -.00000035  00000+0  63128-5 0  9999
2 26070  71.0041 337.1854 0014422 123.9428 236.3068 14.15520013187009
TITAN 4B R/B            
1 26474U 00047B   23024.09729832  .00004316  00000+0  36478-3 0  9999
2 26474  67.9961 336.9485 0058182 234.9616 124.6061 14.97745211221552
